CCSDS_OMM_VERS = 2.0
CREATION_DATE  = 
ORIGINATOR     = 

OBJECT_NAME    = SL-14 R/B
OBJECT_ID      = 1986-046B
CENTER_NAME    = EARTH
REF_FRAME      = TEME
TIME_SYSTEM    = UTC
MEAN_ELEMENT_THEORY = SGP/SGP4

EPOCH          = 2026-01-11T06:50:33.285408
MEAN_MOTION    = 14.85525042
ECCENTRICITY   = .00243812
INCLINATION    = 82.4832
RA_OF_ASC_NODE = 134.4129
ARG_OF_PERICENTER = 59.7442
MEAN_ANOMALY   = 300.6183

EPHEMERIS_TYPE = 0
CLASSIFICATION_TYPE = U
NORAD_CAT_ID   = 16792
ELEMENT_SET_NO = 999
REV_AT_EPOCH   = 11788
BSTAR          = .6319549E-4
MEAN_MOTION_DOT = .573E-5
MEAN_MOTION_DDOT = 0

CCSDS_OMM_VERS = 2.0
CREATION_DATE  = 
ORIGINATOR     = 

OBJECT_NAME    = SL-14 R/B
OBJECT_ID      = 1986-055B
CENTER_NAME    = EARTH
REF_FRAME      = TEME
TIME_SYSTEM    = UTC
MEAN_ELEMENT_THEORY = SGP/SGP4

EPOCH          = 2026-01-11T05:39:47.675808
MEAN_MOTION    = 14.85568412
ECCENTRICITY   = .00194316
INCLINATION    = 82.5202
RA_OF_ASC_NODE = 180.6553
ARG_OF_PERICENTER = 158.2324
MEAN_ANOMALY   = 14.5761

EPHEMERIS_TYPE = 0
CLASSIFICATION_TYPE = U
NORAD_CAT_ID   = 16882
ELEMENT_SET_NO = 999
REV_AT_EPOCH   = 11083
BSTAR          = .70748016E-4
MEAN_MOTION_DOT = .638E-5
MEAN_MOTION_DDOT = 0

CCSDS_OMM_VERS = 2.0
CREATION_DATE  = 
ORIGINATOR     = 

OBJECT_NAME    = AJISAI (EGS)
OBJECT_ID      = 1986-061A
CENTER_NAME    = EARTH
REF_FRAME      = TEME
TIME_SYSTEM    = UTC
MEAN_ELEMENT_THEORY = SGP/SGP4

EPOCH          = 2026-01-11T07:21:55.488672
MEAN_MOTION    = 12.44514817
ECCENTRICITY   = .00113087
INCLINATION    = 50.0089
RA_OF_ASC_NODE = 269.8018
ARG_OF_PERICENTER = 140.1263
MEAN_ANOMALY   = 337.9325

EPHEMERIS_TYPE = 0
CLASSIFICATION_TYPE = U
NORAD_CAT_ID   = 16908
ELEMENT_SET_NO = 999
REV_AT_EPOCH   = 46085
BSTAR          = .55861825E-4
MEAN_MOTION_DOT = -.9E-6
MEAN_MOTION_DDOT = 0

CCSDS_OMM_VERS = 2.0
CREATION_DATE  = 
ORIGINATOR     = 

OBJECT_NAME    = COSMOS 1812
OBJECT_ID      = 1987-003A
CENTER_NAME    = EARTH
REF_FRAME      = TEME
TIME_SYSTEM    = UTC
MEAN_ELEMENT_THEORY = SGP/SGP4

EPOCH          = 2026-01-11T03:16:28.653600
MEAN_MOTION    = 15.83095729
ECCENTRICITY   = .00035185
INCLINATION    = 82.4846
RA_OF_ASC_NODE = 260.0313
ARG_OF_PERICENTER = 55.6750
MEAN_ANOMALY   = 304.4851

EPHEMERIS_TYPE = 0
CLASSIFICATION_TYPE = U
NORAD_CAT_ID   = 17295
ELEMENT_SET_NO = 999
REV_AT_EPOCH   = 13529
BSTAR          = .66745705E-3
MEAN_MOTION_DOT = .144413E-2
MEAN_MOTION_DDOT = 0

CCSDS_OMM_VERS = 2.0
CREATION_DATE  = 
ORIGINATOR     = 

OBJECT_NAME    = SL-14 R/B
OBJECT_ID      = 1987-024B
CENTER_NAME    = EARTH
REF_FRAME      = TEME
TIME_SYSTEM    = UTC
MEAN_ELEMENT_THEORY = SGP/SGP4

EPOCH          = 2026-01-10T20:49:58.255104
MEAN_MOTION    = 14.86064299
ECCENTRICITY   = .00197273
INCLINATION    = 82.5294
RA_OF_ASC_NODE = 147.0922
ARG_OF_PERICENTER = 92.2713
MEAN_ANOMALY   = 268.0762

EPHEMERIS_TYPE = 0
CLASSIFICATION_TYPE = U
NORAD_CAT_ID   = 17567
ELEMENT_SET_NO = 999
REV_AT_EPOCH   = 7954
BSTAR          = .65890855E-4
MEAN_MOTION_DOT = .603E-5
MEAN_MOTION_DDOT = 0

CCSDS_OMM_VERS = 2.0
CREATION_DATE  = 
ORIGINATOR     = 

OBJECT_NAME    = COSMOS 1833
OBJECT_ID      = 1987-027A
CENTER_NAME    = EARTH
REF_FRAME      = TEME
TIME_SYSTEM    = UTC
MEAN_ELEMENT_THEORY = SGP/SGP4

EPOCH          = 2026-01-11T07:23:57.050016
MEAN_MOTION    = 14.13041318
ECCENTRICITY   = .00239609
INCLINATION    = 70.9189
RA_OF_ASC_NODE = 86.6235
ARG_OF_PERICENTER = 290.8779
MEAN_ANOMALY   = 68.9776

EPHEMERIS_TYPE = 0
CLASSIFICATION_TYPE = U
NORAD_CAT_ID   = 17589
ELEMENT_SET_NO = 999
REV_AT_EPOCH   = 221
BSTAR          = .19727849E-3
MEAN_MOTION_DOT = .321E-5
MEAN_MOTION_DDOT = 0

CCSDS_OMM_VERS = 2.0
CREATION_DATE  = 
ORIGINATOR     = 

OBJECT_NAME    = SL-16 R/B
OBJECT_ID      = 1987-027B
CENTER_NAME    = EARTH
REF_FRAME      = TEME
TIME_SYSTEM    = UTC
MEAN_ELEMENT_THEORY = SGP/SGP4

EPOCH          = 2026-01-11T07:22:03.252576
MEAN_MOTION    = 14.17159687
ECCENTRICITY   = .0006617
INCLINATION    = 71.0031
RA_OF_ASC_NODE = 37.4134
ARG_OF_PERICENTER = 227.9445
MEAN_ANOMALY   = 132.1117

EPHEMERIS_TYPE = 0
CLASSIFICATION_TYPE = U
NORAD_CAT_ID   = 17590
ELEMENT_SET_NO = 999
REV_AT_EPOCH   = 721
BSTAR          = .11012203E-3
MEAN_MOTION_DOT = .174E-5
MEAN_MOTION_DDOT = 0

CCSDS_OMM_VERS = 2.0
CREATION_DATE  = 
ORIGINATOR     = 

OBJECT_NAME    = SL-14 R/B
OBJECT_ID      = 1987-038B
CENTER_NAME    = EARTH
REF_FRAME      = TEME
TIME_SYSTEM    = UTC
MEAN_ELEMENT_THEORY = SGP/SGP4

EPOCH          = 2026-01-11T07:18:53.894016
MEAN_MOTION    = 14.85297920
ECCENTRICITY   = .00192558
INCLINATION    = 82.5021
RA_OF_ASC_NODE = 350.8507
ARG_OF_PERICENTER = 359.2942
MEAN_ANOMALY   = 0.8243

EPHEMERIS_TYPE = 0
CLASSIFICATION_TYPE = U
NORAD_CAT_ID   = 17912
ELEMENT_SET_NO = 999
REV_AT_EPOCH   = 7071
BSTAR          = .6616066E-4
MEAN_MOTION_DOT = .594E-5
MEAN_MOTION_DDOT = 0

CCSDS_OMM_VERS = 2.0
CREATION_DATE  = 
ORIGINATOR     = 

OBJECT_NAME    = COSMOS 1844
OBJECT_ID      = 1987-041A
CENTER_NAME    = EARTH
REF_FRAME      = TEME
TIME_SYSTEM    = UTC
MEAN_ELEMENT_THEORY = SGP/SGP4

EPOCH          = 2026-01-11T07:59:54.566880
MEAN_MOTION    = 14.14539047
ECCENTRICITY   = .00283656
INCLINATION    = 70.8993
RA_OF_ASC_NODE = 155.1541
ARG_OF_PERICENTER = 110.0659
MEAN_ANOMALY   = 250.3520

EPHEMERIS_TYPE = 0
CLASSIFICATION_TYPE = U
NORAD_CAT_ID   = 17973
ELEMENT_SET_NO = 999
REV_AT_EPOCH   = 99547
BSTAR          = -.38317215E-4
MEAN_MOTION_DOT = -.122E-5
MEAN_MOTION_DDOT = 0

CCSDS_OMM_VERS = 2.0
CREATION_DATE  = 
ORIGINATOR     = 

OBJECT_NAME    = SL-14 R/B
OBJECT_ID      = 1987-055B
CENTER_NAME    = EARTH
REF_FRAME      = TEME
TIME_SYSTEM    = UTC
MEAN_ELEMENT_THEORY = SGP/SGP4

EPOCH          = 2026-01-11T03:45:50.697792
MEAN_MOTION    = 14.85556047
ECCENTRICITY   = .00201132
INCLINATION    = 82.4979
RA_OF_ASC_NODE = 43.2599
ARG_OF_PERICENTER = 199.7770
MEAN_ANOMALY   = 160.2669

EPHEMERIS_TYPE = 0
CLASSIFICATION_TYPE = U
NORAD_CAT_ID   = 18153
ELEMENT_SET_NO = 999
REV_AT_EPOCH   = 6139
BSTAR          = .50853435E-4
MEAN_MOTION_DOT = .465E-5
MEAN_MOTION_DDOT = 0

CCSDS_OMM_VERS = 2.0
CREATION_DATE  = 
ORIGINATOR     = 

OBJECT_NAME    = COSMOS 1867
OBJECT_ID      = 1987-060A
CENTER_NAME    = EARTH
REF_FRAME      = TEME
TIME_SYSTEM    = UTC
MEAN_ELEMENT_THEORY = SGP/SGP4

EPOCH          = 2026-01-11T07:03:48.859200
MEAN_MOTION    = 14.31492393
ECCENTRICITY   = .00138239
INCLINATION    = 65.0111
RA_OF_ASC_NODE = 107.4389
ARG_OF_PERICENTER = 274.0333
MEAN_ANOMALY   = 85.9171

EPHEMERIS_TYPE = 0
CLASSIFICATION_TYPE = U
NORAD_CAT_ID   = 18187
ELEMENT_SET_NO = 999
REV_AT_EPOCH   = 1172
BSTAR          = .26855912E-4
MEAN_MOTION_DOT = -.29E-6
MEAN_MOTION_DDOT = 0

CCSDS_OMM_VERS = 2.0
CREATION_DATE  = 
ORIGINATOR     = 

OBJECT_NAME    = SL-14 R/B
OBJECT_ID      = 1988-001B
CENTER_NAME    = EARTH
REF_FRAME      = TEME
TIME_SYSTEM    = UTC
MEAN_ELEMENT_THEORY = SGP/SGP4

EPOCH          = 2026-01-11T03:33:38.619360
MEAN_MOTION    = 14.85458893
ECCENTRICITY   = .0019534
INCLINATION    = 82.5119
RA_OF_ASC_NODE = 249.4881
ARG_OF_PERICENTER = 70.1725
MEAN_ANOMALY   = 290.1594

EPHEMERIS_TYPE = 0
CLASSIFICATION_TYPE = U
NORAD_CAT_ID   = 18749
ELEMENT_SET_NO = 999
REV_AT_EPOCH   = 3348
BSTAR          = .46487108E-4
MEAN_MOTION_DOT = .427E-5
MEAN_MOTION_DDOT = 0

