SL-14 R/B               
1 16792U 86046B   26011.28510747  .00000573  00000+0  63195-4 0  9995
2 16792  82.4832 134.4129 0024381  59.7442 300.6183 14.85525042117889
SL-14 R/B               
1 16882U 86055B   26011.23596847  .00000638  00000+0  70748-4 0  9999
2 16882  82.5202 180.6553 0019431 158.2324  14.5761 14.85568412110838
AJISAI (EGS)            
1 16908U 86061A   26011.30689223 -.00000090  00000+0  55862-4 0  9997
2 16908  50.0089 269.8018 0011308 140.1263 337.9325 12.44514817460854
COSMOS 1812             
1 17295U 87003A   26011.13644275  .00144413  00000+0  66746-3 0  9992
2 17295  82.4846 260.0313 0003518  55.6750 304.4851 15.83095729135292
SL-14 R/B               
1 17567U 87024B   26010.86803536  .00000603  00000+0  65891-4 0  9996
2 17567  82.5294 147.0922 0019727  92.2713 268.0762 14.86064299 79548
COSMOS 1833             
1 17589U 87027A   26011.30829919  .00000321  00000+0  19728-3 0  9990
2 17589  70.9189  86.6235 0023960 290.8779  68.9776 14.13041318  2212
SL-16 R/B               
1 17590U 87027B   26011.30698209  .00000174  00000+0  11012-3 0  9992
2 17590  71.0031  37.4134 0006617 227.9445 132.1117 14.17159687  7216
SL-14 R/B               
1 17912U 87038B   26011.30479044  .00000594  00000+0  66161-4 0  9998
2 17912  82.5021 350.8507 0019255 359.2942   0.8243 14.85297920 70713
COSMOS 1844             
1 17973U 87041A   26011.33327045 -.00000122  00000+0 -38317-4 0  9996
2 17973  70.8993 155.1541 0028365 110.0659 250.3520 14.14539047995472
SL-14 R/B               
1 18153U 87055B   26011.15683678  .00000465  00000+0  50853-4 0  9996
2 18153  82.4979  43.2599 0020113 199.7770 160.2669 14.85556047 61392
COSMOS 1867             
1 18187U 87060A   26011.29431550 -.00000029  00000+0  26856-4 0  9997
2 18187  65.0111 107.4389 0013823 274.0333  85.9171 14.31492393 11723
SL-14 R/B               
1 18749U 88001B   26011.14836365  .00000427  00000+0  46487-4 0  9997
2 18749  82.5119 249.4881 0019534  70.1725 290.1594 14.85458893 33480
